ORBCOMM FM06            
1 25118U 97084G   26167.40423225  .00001010  00000+0  31096-3 0  9992
2 25118  45.0145  56.4813 0001245 329.5459 201.1029 14.47560986494275
ORBCOMM FM04            
1 25159U 98007C   26167.55837447  .00000690  00000+0  28187-3 0  9994
2 25159 107.9627 168.1251 0041337 325.8547  33.9936 14.35740334476501
ORBCOMM FM19            
1 25415U 98046C   26167.51731578  .00000561  00000+0  22356-3 0  9995
2 25415  44.9932 246.7461 0004570 278.9196  95.4071 14.39494518456681
ORBCOMM FM20            
1 25416U 98046D   26167.52666176  .00000443  00000+0  19152-3 0  9997
2 25416  44.9940 254.6171 0002249 248.3440 111.7169 14.38065661456694
ORBCOMM FM27            
1 25481U 98053G   26167.14624811  .00000758  00000+0  28821-3 0  9997
2 25481  45.0064 340.2982 0000915 189.8838 170.1993 14.39139688450088
ORBCOMM FM32            
1 25982U 99065C   26167.24769127  .00000377  00000+0  17299-3 0  9992
2 25982  45.0137 177.6870 0004530  29.7396 330.3709 14.37129035386953
ORBCOMM FM109           
1 40086U 14040A   26167.48191738  .00000333  00000+0  10671-3 0  9996
2 40086  47.0031  94.8210 0001890 244.7022 115.3669 14.58844120634245
ORBCOMM FM110           
1 41182U 15081D   26167.28208698  .00000587  00000+0  16038-3 0  9996
2 41182  47.0033   5.7226 0002528  70.1353 289.9805 14.58879506557497
ORBCOMM FM118           
1 41183U 15081E   26165.94661219  .00002342  00000+0  53124-3 0  9998
2 41183  47.0047  12.3690 0002883  17.4423 342.6561 14.58877028557402
ORBCOMM FM112           
1 41184U 15081F   26167.59485463  .00000484  00000+0  13859-3 0  9993
2 41184  46.9989 273.0484 0003695 215.2592 144.8050 14.58903652558869
ORBCOMM FM113           
1 41185U 15081G   26167.57146101  .00000284  00000+0  96374-4 0  9997
2 41185  47.0011 273.5350 0002238 221.9238 138.1476 14.58857904558842
ORBCOMM FM108           
1 41187U 15081J   26167.32840319  .00000299  00000+0  99554-4 0  9993
2 41187  47.0031 186.2578 0002924 218.5464 141.5214 14.58869229559957
ORBCOMM FM117           
1 41188U 15081K   26167.36239982  .00000213  00000+0  81409-4 0  9992
2 41188  46.9995 184.7308 0003440 221.3702 138.6923 14.58864590560008
ORBCOMM FM116           
1 41189U 15081L   26167.54831745  .00000498  00000+0  14143-3 0  9993
2 41189  47.0021 273.6426 0000582  60.6183 299.4761 14.58882478558841
